{
    "links": {
        "self": "http://www.neowsapp.com/rest/v1/neo/3297203?api_key=iIulBulltgU6a56xZRHN4H3l9WmuAYTsLGpBGhQ2"
    },
    "id": "3297203",
    "neo_reference_id": "3297203",
    "name": "(2005 UE3)",
    "designation": "2005 UE3",
    "nasa_jpl_url": "http://ssd.jpl.nasa.gov/sbdb.cgi?sstr=3297203",
    "absolute_magnitude_h": 20.1,
    "estimated_diameter": {
        "kilometers": {
            "estimated_diameter_min": 0.2538370294,
            "estimated_diameter_max": 0.5675968529
        },
        "meters": {
            "estimated_diameter_min": 253.8370293645,
            "estimated_diameter_max": 567.5968528656
        },
        "miles": {
            "estimated_diameter_min": 0.1577269688,
            "estimated_diameter_max": 0.3526882241
        },
        "feet": {
            "estimated_diameter_min": 832.7986794202,
            "estimated_diameter_max": 1862.1944587557
        }
    },
    "is_potentially_hazardous_asteroid": false,
    "close_approach_data": [
        {
            "close_approach_date": "2005-08-29",
            "close_approach_date_full": "2005-Aug-29 22:43",
            "epoch_date_close_approach": 1125355380000,
            "relative_velocity": {
                "kilometers_per_second": "6.9486217699",
                "kilometers_per_hour": "25015.0383715207",
                "miles_per_hour": "15543.3720370152"
            },
            "miss_distance": {
                "astronomical": "0.3587134757",
                "lunar": "139.5395420473",
                "kilometers": "53662771.905016759",
                "miles": "33344500.2567549142"
            },
            "orbiting_body": "Earth"
        }
    ],
    "orbital_data": {
        "orbit_id": "9",
        "orbit_determination_date": "2017-04-06 09:10:08",
        "first_observation_date": "2005-10-25",
        "last_observation_date": "2005-11-26",
        "data_arc_in_days": 32,
        "observations_used": 22,
        "orbit_uncertainty": "7",
        "minimum_orbit_intersection": ".248258",
        "jupiter_tisserand_invariant": "3.470",
        "epoch_osculation": "2459000.5",
        "eccentricity": ".448517335469008",
        "semi_major_axis": "2.251884613785244",
        "inclination": "9.764642984805668",
        "ascending_node_longitude": "6.466664558541413",
        "orbital_period": "1234.291184551056",
        "perihelion_distance": "1.24187532702663",
        "perihelion_argument": "330.6400724307536",
        "aphelion_distance": "3.261893900543857",
        "perihelion_time": "2458563.023679386324",
        "mean_anomaly": "127.5966946796329",
        "mean_motion": ".2916653740267467",
        "equinox": "J2000",
        "orbit_class": {
            "orbit_class_type": "AMO",
            "orbit_class_description": "Near-Earth asteroid orbits similar to that of 1221 Amor",
            "orbit_class_range": "1.017 AU < q (perihelion) < 1.3 AU"
        }
    },
    "is_sentry_object": false
}